*******************************************************************************
Ephemeris / WWW_USER Tue Mar 27 22:26:07 2018 Pasadena, USA      / Horizons    
*******************************************************************************
Target body name: Saturn Barycenter (6)           {source: DE431mx}
Center body name: Solar System Barycenter (0)     {source: DE431mx}
Center-site name: BODY CENTER
*******************************************************************************
Start time      : A.D. 2018-Feb-08 00:00:00.0000 TDB
Stop  time      : A.D. 2019-Feb-08 00:00:00.0000 TDB
Step-size       : 7200 minutes
*******************************************************************************
Center geodetic : 0.00000000,0.00000000,0.0000000 {E-lon(deg),Lat(deg),Alt(km)}
Center cylindric: 0.00000000,0.00000000,0.0000000 {E-lon(deg),Dxy(km),Dz(km)}
Center radii    : (undefined)                                                  
Output units    : AU-D                                                         
Output type     : GEOMETRIC cartesian states
Output format   : 2 (position and velocity)
Reference frame : ICRF/J2000.0                                                 
Coordinate systm: Ecliptic and Mean Equinox of Reference Epoch                 
*******************************************************************************
JDTDB
   X     Y     Z
   VX    VY    VZ
*******************************************************************************
$$SOE
2458157.500000000 = A.D. 2018-Feb-08 00:00:00.0000 TDB 
   2.482199446300208E-01 -1.005457920666719E+01  1.649392233358092E-01
   5.270629833298171E-03  1.197159465988316E-04 -2.118637561396024E-04
2458162.500000000 = A.D. 2018-Feb-13 00:00:00.0000 TDB 
   2.745721352788010E-01 -1.005394408409259E+01  1.638793066716108E-01
   5.270240028263366E-03  1.343329105112995E-04 -2.121026523532488E-04
2458167.500000000 = A.D. 2018-Feb-18 00:00:00.0000 TDB 
   3.009222809353654E-01 -1.005323587936288E+01  1.628181993853155E-01
   5.269811836859798E-03  1.489487939450511E-04 -2.123400047436250E-04
2458172.500000000 = A.D. 2018-Feb-23 00:00:00.0000 TDB 
   3.272701896747098E-01 -1.005245459810093E+01  1.617559091995560E-01
   5.269345261847685E-03  1.635635087093147E-04 -2.125758119051493E-04
2458177.500000000 = A.D. 2018-Feb-28 00:00:00.0000 TDB 
   3.536156695860005E-01 -1.005160024637051E+01  1.606924438439771E-01
   5.268840306135457E-03  1.781769666388267E-04 -2.128100724388171E-04
2458182.500000000 = A.D. 2018-Mar-05 00:00:00.0000 TDB 
   3.799585287733173E-01 -1.005067283067617E+01  1.596278110552024E-01
   5.268296972779901E-03  1.927890795899557E-04 -2.130427849519482E-04
2458187.500000000 = A.D. 2018-Mar-10 00:00:00.0000 TDB 
   4.062985753563929E-01 -1.004967235796312E+01  1.585620185768035E-01
   5.267715264985249E-03  2.073997594364875E-04 -2.132739480577860E-04
2458192.500000000 = A.D. 2018-Mar-15 00:00:00.0000 TDB 
   4.326356174713478E-01 -1.004859883561717E+01  1.574950741592728E-01
   5.267095186102255E-03  2.220089180654108E-04 -2.135035603750989E-04
2458197.500000000 = A.D. 2018-Mar-20 00:00:00.0000 TDB 
   4.589694632714157E-01 -1.004745227146466E+01  1.564269855599945E-01
   5.266436739624443E-03  2.366164673773593E-04 -2.137316205280279E-04
2458202.500000000 = A.D. 2018-Mar-25 00:00:00.0000 TDB 
   4.852999209276523E-01 -1.004623267377240E+01  1.553577605432169E-01
   5.265739929187463E-03  2.512223192890634E-04 -2.139581271463445E-04
2458207.500000000 = A.D. 2018-Mar-30 00:00:00.0000 TDB 
   5.116267986296480E-01 -1.004494005124755E+01  1.542874068800293E-01
   5.265004758569902E-03  2.658263857347388E-04 -2.141830788653764E-04
2458212.500000000 = A.D. 2018-Apr-04 00:00:00.0000 TDB 
   5.379499045862470E-01 -1.004357441303758E+01  1.532159323483273E-01
   5.264231231694561E-03  2.804285786642671E-04 -2.144064743262814E-04
2458217.500000000 = A.D. 2018-Apr-09 00:00:00.0000 TDB 
   5.642690470262669E-01 -1.004213576873016E+01  1.521433447327865E-01
   5.263419352627980E-03  2.950288100418678E-04 -2.146283121758102E-04
2458222.500000000 = A.D. 2018-Apr-14 00:00:00.0000 TDB 
   5.905840341992163E-01 -1.004062412835312E+01  1.510696518248352E-01
   5.262569125579951E-03  3.096269918447714E-04 -2.148485910660692E-04
2458227.500000000 = A.D. 2018-Apr-19 00:00:00.0000 TDB 
   6.168946743760101E-01 -1.003903950237435E+01  1.499948614226299E-01
   5.261680554902737E-03  3.242230360622627E-04 -2.150673096544038E-04
2458232.500000000 = A.D. 2018-Apr-24 00:00:00.0000 TDB 
   6.432007758496756E-01 -1.003738190170180E+01  1.489189813310237E-01
   5.260753645089366E-03  3.388168546964796E-04 -2.152844666035906E-04
2458237.500000000 = A.D. 2018-Apr-29 00:00:00.0000 TDB 
   6.695021469360583E-01 -1.003565133768334E+01  1.478420193615465E-01
   5.259788400773384E-03  3.534083597629948E-04 -2.155000605813177E-04
2458242.500000000 = A.D. 2018-May-04 00:00:00.0000 TDB 
   6.957985959745187E-01 -1.003384782210673E+01  1.467639833323759E-01
   5.258784826727520E-03  3.679974632922337E-04 -2.157140902604963E-04
2458247.500000000 = A.D. 2018-May-09 00:00:00.0000 TDB 
   7.220899313286290E-01 -1.003197136719957E+01  1.456848810683091E-01
   5.257742927863645E-03  3.825840773312812E-04 -2.159265543194137E-04
2458252.500000000 = A.D. 2018-May-14 00:00:00.0000 TDB 
   7.483759613868691E-01 -1.003002198562913E+01  1.446047204007424E-01
   5.256662709232847E-03  3.971681139457510E-04 -2.161374514418601E-04
2458257.500000000 = A.D. 2018-May-19 00:00:00.0000 TDB 
   7.746564945633222E-01 -1.002799969050234E+01  1.435235091676345E-01
   5.255544176025569E-03  4.117494852218720E-04 -2.163467803173147E-04
2458262.500000000 = A.D. 2018-May-24 00:00:00.0000 TDB 
   8.009313392983756E-01 -1.002590449536563E+01  1.424412552134878E-01
   5.254387333573347E-03  4.263281032657544E-04 -2.165545396409841E-04
2458267.500000000 = A.D. 2018-May-29 00:00:00.0000 TDB 
   8.272003040594286E-01 -1.002373641420485E+01  1.413579663893084E-01
   5.253192187349605E-03  4.409038802066756E-04 -2.167607281142220E-04
2458272.500000000 = A.D. 2018-Jun-03 00:00:00.0000 TDB 
   8.534631973416063E-01 -1.002149546144516E+01  1.402736505525840E-01
   5.251958742971406E-03  4.554767281936587E-04 -2.169653444444016E-04
2458277.500000000 = A.D. 2018-Jun-08 00:00:00.0000 TDB 
   8.797198276684778E-01 -1.001918165195090E+01  1.391883155672482E-01
   5.250687006199074E-03  4.700465593920563E-04 -2.171683873443635E-04
2458282.500000000 = A.D. 2018-Jun-13 00:00:00.0000 TDB 
   9.059700035927696E-01 -1.001679500102558E+01  1.381019693036611E-01
   5.249376982934952E-03  4.846132859848594E-04 -2.173698555325697E-04
2458287.500000000 = A.D. 2018-Jun-18 00:00:00.0000 TDB 
   9.322135336970719E-01 -1.001433552441173E+01  1.370146196385696E-01
   5.248028679222184E-03  4.991768201740049E-04 -2.175697477332581E-04
2458292.500000000 = A.D. 2018-Jun-23 00:00:00.0000 TDB 
   9.584502265945425E-01 -1.001180323829081E+01  1.359262744550916E-01
   5.246642101245171E-03  5.137370741825203E-04 -2.177680626765975E-04
2458297.500000000 = A.D. 2018-Jun-28 00:00:00.0000 TDB 
   9.846798909296233E-01 -1.000919815928313E+01  1.348369416426731E-01
   5.245217255333002E-03  5.282939602559931E-04 -2.179647990990266E-04
2458302.500000000 = A.D. 2018-Jul-03 00:00:00.0000 TDB 
   1.010902335378764E+00 -1.000652030444770E+01  1.337466290970653E-01
   5.243754147960389E-03  5.428473906601358E-04 -2.181599557432470E-04
2458307.500000000 = A.D. 2018-Jul-08 00:00:00.0000 TDB 
   1.037117368651155E+00 -1.000376969128217E+01  1.326553447202908E-01
   5.242252785749234E-03  5.573972776773742E-04 -2.183535313579419E-04
2458312.500000000 = A.D. 2018-Jul-13 00:00:00.0000 TDB 
   1.063324799489464E+00 -1.000094633772274E+01  1.315630964206116E-01
   5.240713175467983E-03  5.719435336049406E-04 -2.185455246976235E-04
2458317.500000000 = A.D. 2018-Jul-18 00:00:00.0000 TDB 
   1.089524436670567E+00 -9.998050262144087E+00  1.304698921125055E-01
   5.239135324030983E-03  5.864860707530964E-04 -2.187359345224837E-04
2458322.500000000 = A.D. 2018-Jul-23 00:00:00.0000 TDB 
   1.115716089006273E+00 -9.995081483359307E+00  1.293757397166347E-01
   5.237519238497682E-03  6.010248014434020E-04 -2.189247595981307E-04
2458327.500000000 = A.D. 2018-Jul-28 00:00:00.0000 TDB 
   1.141899565344045E+00 -9.992040020619861E+00  1.282806471598208E-01
   5.235864926069978E-03  6.155596380094892E-04 -2.191119986954515E-04
2458332.500000000 = A.D. 2018-Aug-02 00:00:00.0000 TDB 
   1.168074674567714E+00 -9.988925893615511E+00  1.271846223750172E-01
   5.234172394092097E-03  6.300904927975987E-04 -2.192976505904115E-04
2458337.500000000 = A.D. 2018-Aug-07 00:00:00.0000 TDB 
   1.194241225598181E+00 -9.985739122474248E+00  1.260876733012855E-01
   5.232441650047858E-03  6.446172781686611E-04 -2.194817140641389E-04
2458342.500000000 = A.D. 2018-Aug-12 00:00:00.0000 TDB 
   1.220399027394113E+00 -9.982479727762220E+00  1.249898078837677E-01
   5.230672701560258E-03  6.591399065016297E-04 -2.196641879031556E-04
2458347.500000000 = A.D. 2018-Aug-17 00:00:00.0000 TDB 
   1.246547888952641E+00 -9.979147730483628E+00  1.238910340736590E-01
   5.228865556391716E-03  6.736582901965217E-04 -2.198450708993497E-04
2458352.500000000 = A.D. 2018-Aug-22 00:00:00.0000 TDB 
   1.272687619310058E+00 -9.975743152080616E+00  1.227913598281835E-01
   5.227020222444339E-03  6.881723416774575E-04 -2.200243618499488E-04
2458357.500000000 = A.D. 2018-Aug-27 00:00:00.0000 TDB 
   1.298818027542519E+00 -9.972266014433130E+00  1.216907931105646E-01
   5.225136707762133E-03  7.026819733951376E-04 -2.202020595579887E-04
2458362.500000000 = A.D. 2018-Sep-01 00:00:00.0000 TDB 
   1.324938922766759E+00 -9.968716339858808E+00  1.205893418899938E-01
   5.223215020532899E-03  7.171870978265978E-04 -2.203781628322597E-04
